[{"OBJECT_NAME":"BUFENG 1A","OBJECT_ID":"2019-032A","EPOCH":"2026-03-09T22:03:27.507168","MEAN_MOTION":15.26012088,"ECCENTRICITY":0.00054719,"INCLINATION":44.9758,"RA_OF_ASC_NODE":238.6688,"ARG_OF_PERICENTER":55.4463,"MEAN_ANOMALY":304.6935,"EPHEMERIS_TYPE":0,"CLASSIFICATION_TYPE":"U","NORAD_CAT_ID":44310,"ELEMENT_SET_NO":999,"REV_AT_EPOCH":37201,"BSTAR":0.00062413703,"MEAN_MOTION_DOT":0.00016103,"MEAN_MOTION_DDOT":0},{"OBJECT_NAME":"STARLINK-30971","OBJECT_ID":"2023-183G","EPOCH":"2026-03-09T22:00:01.999584","MEAN_MOTION":15.26725568,"ECCENTRICITY":0.00013439,"INCLINATION":43.0006,"RA_OF_ASC_NODE":40.3559,"ARG_OF_PERICENTER":265.7456,"MEAN_ANOMALY":277.1828,"EPHEMERIS_TYPE":0,"CLASSIFICATION_TYPE":"U","NORAD_CAT_ID":58443,"ELEMENT_SET_NO":999,"REV_AT_EPOCH":578,"BSTAR":0.0011226835,"MEAN_MOTION_DOT":0.00029964,"MEAN_MOTION_DDOT":0}]
